OBJECT_NAME,OBJECT_ID,EPOCH,MEAN_MOTION,ECCENTRICITY,INCLINATION,RA_OF_ASC_NODE,ARG_OF_PERICENTER,MEAN_ANOMALY,EPHEMERIS_TYPE,CLASSIFICATION_TYPE,NORAD_CAT_ID,ELEMENT_SET_NO,REV_AT_EPOCH,BSTAR,MEAN_MOTION_DOT,MEAN_MOTION_DDOT
STARLINK-2443,2021-027R,2026-06-03T04:00:59.659488,15.31721769,.00012759,53.1592,115.1846,111.5515,248.5622,0,U,48107,999,28577,.37924926E-3,.11429E-3,0
STARLINK-2448,2021-027V,2026-06-03T04:55:12.146016,15.40077874,.0005597,53.1556,114.4509,43.5856,316.5590,0,U,48111,999,28580,.16644E-2,.67815E-3,0
STARLINK-2449,2021-027W,2026-06-03T05:06:13.214016,15.31718502,.0001215,53.1601,129.9675,82.4974,277.6165,0,U,48112,999,28558,.87608E-4,.2356E-4,0
STARLINK-2450,2021-027X,2026-06-03T05:19:10.337952,15.31722775,.000149,53.1581,127.4440,75.6396,284.4771,0,U,48113,999,28560,.29386E-3,.8771E-4,0
STARLINK-2452,2021-027Z,2026-06-03T04:08:06.893664,15.31719464,.00011111,53.1586,117.2952,86.2785,273.8343,0,U,48115,999,28574,.22559508E-3,.6646E-4,0
STARLINK-2454,2021-027AA,2026-06-03T04:49:36.419808,15.30222850,.0000986,53.1591,128.0706,93.0272,267.0842,0,U,48116,999,28560,-.18579E-3,-.5861E-4,0
STARLINK-2455,2021-027AB,2026-06-03T04:34:01.562304,15.31725064,.0002621,53.1575,114.7791,37.2817,322.8366,0,U,48117,999,28578,.35076E-3,.10543E-3,0
STARLINK-2459,2021-027AD,2026-06-03T12:24:18.252288,15.31680003,.00020036,53.1578,113.1874,41.5705,318.5449,0,U,48119,999,28582,.25816928E-3,.7649E-4,0
STARLINK-2460,2021-027AE,2026-06-03T05:06:45.976032,15.41783579,.0002429,53.1587,127.3768,72.0632,288.0638,0,U,48120,999,28562,.5321E-3,.22523E-3,0
STARLINK-2462,2021-027AF,2026-06-03T04:55:06.320064,15.31710906,.0001258,53.1575,117.1635,108.5207,251.5931,0,U,48121,999,28575,.66276E-4,.1693E-4,0
STARLINK-2464,2021-027AH,2026-06-02T05:11:50.291520,15.31701513,.00014431,53.1586,119.4437,82.1700,277.9465,0,U,48123,999,28563,.11477427E-3,.3198E-4,0
STARLINK-2465,2021-027AJ,2026-06-03T05:08:31.720128,15.31710529,.0001283,53.1588,117.1420,100.3766,259.7380,0,U,48124,999,28575,.93075E-4,.2525E-4,0
STARLINK-2466,2021-027AK,2026-06-03T04:45:39.968064,15.31719232,.0001382,53.1600,127.8443,94.8008,265.3151,0,U,48125,999,28560,.24562E-3,.7269E-4,0
STARLINK-2467,2021-027AL,2026-06-03T05:07:34.060224,15.31710576,.0001273,53.1600,114.6470,89.0582,271.0565,0,U,48126,999,28579,.18975E-3,.5529E-4,0
STARLINK-2468,2021-027AM,2026-06-03T03:38:02.282784,15.31715725,.00014188,53.1570,127.8686,115.5732,244.5417,0,U,48127,999,28560,.22598679E-3,.6657E-4,0
STARLINK-2469,2021-027AN,2026-06-01T04:51:03.796992,15.25321149,.00029804,53.1024,77.6837,66.6807,293.4504,0,U,48128,999,28611,.25991389E-2,.66609E-3,0
STARLINK-2471,2021-027AP,2026-06-03T03:51:58.866336,15.31709865,.0001294,53.1571,127.9896,97.2399,262.8750,0,U,48129,999,28560,.19458011E-3,.5679E-4,0
STARLINK-2472,2021-027AQ,2026-06-03T04:05:54.263616,15.31700830,.00012646,53.1587,130.5648,118.2979,241.8150,0,U,48130,999,28557,.76697981E-4,.2016E-4,0
STARLINK-2473,2021-027AR,2026-06-03T04:14:25.927872,15.31712043,.00016596,53.1601,115.2072,141.9505,218.1614,0,U,48131,999,28577,.17978386E-3,.522E-4,0
STARLINK-2474,2021-027AS,2026-06-03T05:46:57.850176,15.31725692,.0001285,53.1578,129.8338,114.1157,245.9979,0,U,48132,999,28557,-.51479E-4,-.1964E-4,0
STARLINK-2475,2021-027AT,2026-06-03T04:38:55.048416,15.31711987,.0001096,53.1574,127.6654,89.2394,270.8733,0,U,48133,999,28561,.2006E-3,.5867E-4,0
STARLINK-2476,2021-027AU,2026-06-03T16:00:15.999840,15.31701267,.0001326,53.1573,125.3191,92.0563,152.8389,0,U,48134,999,582,.2438284E-3,.7209E-4,0
STARLINK-2478,2021-027AV,2026-06-03T22:00:01.999584,15.31714155,.00011309,53.1581,126.8687,97.5628,4.8263,0,U,48135,999,586,.11152586E-2,.34418E-3,0
STARLINK-2479,2021-027AW,2026-06-03T05:12:30.212640,15.31720250,.0001189,53.1571,127.7069,80.0252,280.0884,0,U,48136,999,28561,.23517E-3,.6944E-4,0
STARLINK-2480,2021-027AX,2026-06-03T04:15:24.045696,15.31719272,.00013642,53.1602,117.6952,122.7311,237.3822,0,U,48137,999,28573,.348219E-3,.10462E-3,0
STARLINK-2481,2021-027AY,2026-06-03T05:33:33.727104,15.31720442,.0001392,53.1578,129.8576,86.3111,273.8049,0,U,48138,999,28558,.30977E-3,.9265E-4,0
STARLINK-2482,2021-027AZ,2026-06-02T05:11:22.873344,15.31703739,.00015857,53.1581,119.5595,83.5561,276.5621,0,U,48139,999,28563,.13026849E-3,.368E-4,0
STARLINK-2483,2021-027BA,2026-06-03T05:46:05.739744,15.31708218,.0001184,53.1588,127.7331,96.3469,263.7667,0,U,48140,999,28561,.18375E-3,.5342E-4,0
STARLINK-2485,2021-027BC,2026-06-03T03:47:08.070720,15.31725224,.00013053,53.1596,115.4896,93.4221,266.6929,0,U,48142,999,28577,.32119769E-3,.9623E-4,0
STARLINK-2486,2021-027BD,2026-06-02T00:47:30.766272,15.37950872,.00051049,53.1578,67.1191,74.6697,285.4871,0,U,48143,999,28635,.17301631E-2,.65726E-3,0
