STARLINK-2443           
1 48107U 21027R   26154.16735717  .00011429  00000+0  37925-3 0  9992
2 48107  53.1592 115.1846 0001275 111.5515 248.5622 15.31721769285777
STARLINK-2448           
1 48111U 21027V   26154.20500169  .00067815  00000+0  16644-2 0  9997
2 48111  53.1556 114.4509 0005597  43.5856 316.5590 15.40077874285808
STARLINK-2449           
1 48112U 21027W   26154.21265294  .00002356  00000+0  87608-4 0  9995
2 48112  53.1601 129.9675 0001215  82.4974 277.6165 15.31718502285581
STARLINK-2450           
1 48113U 21027X   26154.22164743  .00008771  00000+0  29386-3 0  9999
2 48113  53.1581 127.4440 0001490  75.6396 284.4771 15.31722775285608
STARLINK-2452           
1 48115U 21027Z   26154.17230201  .00006646  00000+0  22560-3 0  9994
2 48115  53.1586 117.2952 0001111  86.2785 273.8343 15.31719464285743
STARLINK-2454           
1 48116U 21027AA  26154.20111597 -.00005861  00000+0 -18579-3 0  9990
2 48116  53.1591 128.0706 0000986  93.0272 267.0842 15.30222850285604
STARLINK-2455           
1 48117U 21027AB  26154.19029586  .00010543  00000+0  35076-3 0  9997
2 48117  53.1575 114.7791 0002621  37.2817 322.8366 15.31725064285782
STARLINK-2459           
1 48119U 21027AD  26154.51687792  .00007649  00000+0  25817-3 0  9999
2 48119  53.1578 113.1874 0002003  41.5705 318.5449 15.31680003285822
STARLINK-2460           
1 48120U 21027AE  26154.21303213  .00022523  00000+0  53210-3 0  9997
2 48120  53.1587 127.3768 0002429  72.0632 288.0638 15.41783579285625
STARLINK-2462           
1 48121U 21027AF  26154.20493426  .00001693  00000+0  66276-4 0  9995
2 48121  53.1575 117.1635 0001258 108.5207 251.5931 15.31710906285753
STARLINK-2464           
1 48123U 21027AH  26153.21655430  .00003198  00000+0  11477-3 0  9996
2 48123  53.1586 119.4437 0001443  82.1700 277.9465 15.31701513285638
STARLINK-2465           
1 48124U 21027AJ  26154.21425602  .00002525  00000+0  93075-4 0  9992
2 48124  53.1588 117.1420 0001283 100.3766 259.7380 15.31710529285759
STARLINK-2466           
1 48125U 21027AK  26154.19837926  .00007269  00000+0  24562-3 0  9990
2 48125  53.1600 127.8443 0001382  94.8008 265.3151 15.31719232285607
STARLINK-2467           
1 48126U 21027AL  26154.21358866  .00005529  00000+0  18975-3 0  9993
2 48126  53.1600 114.6470 0001273  89.0582 271.0565 15.31710576285799
STARLINK-2468           
1 48127U 21027AM  26154.15141531  .00006657  00000+0  22599-3 0  9996
2 48127  53.1570 127.8686 0001418 115.5732 244.5417 15.31715725285606
STARLINK-2469           
1 48128U 21027AN  26152.20212728  .00066609  00000+0  25991-2 0  9999
2 48128  53.1024  77.6837 0002980  66.6807 293.4504 15.25321149286118
STARLINK-2471           
1 48129U 21027AP  26154.16109799  .00005679  00000+0  19458-3 0  9992
2 48129  53.1571 127.9896 0001294  97.2399 262.8750 15.31709865285601
STARLINK-2472           
1 48130U 21027AQ  26154.17076694  .00002016  00000+0  76698-4 0  9994
2 48130  53.1587 130.5648 0001264 118.2979 241.8150 15.31700830285570
STARLINK-2473           
1 48131U 21027AR  26154.17668898  .00005220  00000+0  17978-3 0  9993
2 48131  53.1601 115.2072 0001659 141.9505 218.1614 15.31712043285778
STARLINK-2474           
1 48132U 21027AS  26154.24094734 -.00001964  00000+0 -51479-4 0  9992
2 48132  53.1578 129.8338 0001285 114.1157 245.9979 15.31725692285572
STARLINK-2475           
1 48133U 21027AT  26154.19369269  .00005867  00000+0  20060-3 0  9990
2 48133  53.1574 127.6654 0001096  89.2394 270.8733 15.31711987285613
STARLINK-2476           
1 48134U 21027AU  26154.66685185  .00007209  00000+0  24383-3 0  9995
2 48134  53.1573 125.3191 0001326  92.0563 152.8389 15.31701267  5829
STARLINK-2478           
1 48135U 21027AV  26154.91668981  .00034418  00000+0  11153-2 0  9991
2 48135  53.1581 126.8687 0001130  97.5628   4.8263 15.31714155  5861
STARLINK-2479           
1 48136U 21027AW  26154.21701635  .00006944  00000+0  23517-3 0  9990
2 48136  53.1571 127.7069 0001189  80.0252 280.0884 15.31720250285612
STARLINK-2480           
1 48137U 21027AX  26154.17736164  .00010462  00000+0  34822-3 0  9992
2 48137  53.1602 117.6952 0001364 122.7311 237.3822 15.31719272285734
STARLINK-2481           
1 48138U 21027AY  26154.23164036  .00009265  00000+0  30977-3 0  9999
2 48138  53.1578 129.8576 0001392  86.3111 273.8049 15.31720442285588
STARLINK-2482           
1 48139U 21027AZ  26153.21623696  .00003680  00000+0  13027-3 0  9991
2 48139  53.1581 119.5595 0001585  83.5561 276.5621 15.31703739285634
STARLINK-2483           
1 48140U 21027BA  26154.24034421  .00005342  00000+0  18375-3 0  9997
2 48140  53.1588 127.7331 0001184  96.3469 263.7667 15.31708218285619
STARLINK-2485           
1 48142U 21027BC  26154.15773230  .00009623  00000+0  32120-3 0  9997
2 48142  53.1596 115.4896 0001305  93.4221 266.6929 15.31725224285775
STARLINK-2486           
1 48143U 21027BD  26153.03299498  .00065726  00000+0  17302-2 0  9993
2 48143  53.1578  67.1191 0005104  74.6697 285.4871 15.37950872286351
